{
  "type": "FeatureCollection",
  "features": [
    {
      "type": "Feature",
      "properties": {
        "norad_id": 38829,
        "name": "FENGYUN 1C DEB",
        "group": "fengyun-1c-debris",
        "lat": 70.09365387451156,
        "lon": -27.44134255854228,
        "alt_km": 828.5449423350083,
        "timestamp": "2025-12-07T14:37:05.494738+00:00",
        "meta_object_name": "FENGYUN 1C DEB",
        "meta_object_id": "1999-025EVV",
        "meta_epoch": "2025-11-28T12:09:37.579680",
        "meta_mean_motion": 14.09173473,
        "meta_eccentricity": 0.00415826,
        "meta_inclination": 98.7503,
        "meta_ra_of_asc_node": 348.8898,
        "meta_arg_of_pericenter": 70.4663,
        "meta_mean_anomaly": 290.0991,
        "meta_ephemeris_type": 0,
        "meta_classification_type": "U",
        "meta_norad_cat_id": 38829,
        "meta_element_set_no": 999,
        "meta_rev_at_epoch": 63932,
        "meta_bstar": 0.00056587384,
        "meta_mean_motion_dot": 9.49e-06,
        "meta_mean_motion_ddot": 0,
        "tle_line1": "1 38829U 99025EVV 25332.50668495  .00000949  00000+0  56587-3 0  9998",
        "tle_line2": "2 38829  98.7503 348.8898 0041582  70.4663 290.0991 14.09173473639320"
      },
      "geometry": {
        "type": "Point",
        "coordinates": [
          -27.44134255854228,
          70.09365387451156
        ]
      }
    },
    {
      "type": "Feature",
      "properties": {
        "norad_id": 38832,
        "name": "FENGYUN 1C DEB",
        "group": "fengyun-1c-debris",
        "lat": -55.39549664481005,
        "lon": -167.81396877521618,
        "alt_km": 946.5094280760995,
        "timestamp": "2025-12-07T14:37:05.494748+00:00",
        "meta_object_name": "FENGYUN 1C DEB",
        "meta_object_id": "1999-025EVY",
        "meta_epoch": "2025-12-06T01:35:41.081280",
        "meta_mean_motion": 14.04461067,
        "meta_eccentricity": 0.00842955,
        "meta_inclination": 99.2666,
        "meta_ra_of_asc_node": 24.2995,
        "meta_arg_of_pericenter": 61.4582,
        "meta_mean_anomaly": 299.5038,
        "meta_ephemeris_type": 0,
        "meta_classification_type": "U",
        "meta_norad_cat_id": 38832,
        "meta_element_set_no": 999,
        "meta_rev_at_epoch": 63664,
        "meta_bstar": 0.0018423355,
        "meta_mean_motion_dot": 2.987e-05,
        "meta_mean_motion_ddot": 0,
        "tle_line1": "1 38832U 99025EVY 25340.06644770  .00002987  00000+0  18423-2 0  9992",
        "tle_line2": "2 38832  99.2666  24.2995 0084295  61.4582 299.5038 14.04461067636643"
      },
      "geometry": {
        "type": "Point",
        "coordinates": [
          -167.81396877521618,
          -55.39549664481005
        ]
      }
    },
    {
      "type": "Feature",
      "properties": {
        "norad_id": 39536,
        "name": "FENGYUN 1C DEB",
        "group": "fengyun-1c-debris",
        "lat": -44.778472250328576,
        "lon": -168.39246094611042,
        "alt_km": 878.8786330178509,
        "timestamp": "2025-12-07T14:37:05.494759+00:00",
        "meta_object_name": "FENGYUN 1C DEB",
        "meta_object_id": "1999-025EWD",
        "meta_epoch": "2025-11-07T21:44:34.572480",
        "meta_mean_motion": 13.69653557,
        "meta_eccentricity": 0.02407275,
        "meta_inclination": 99.7905,
        "meta_ra_of_asc_node": 351.2614,
        "meta_arg_of_pericenter": 346.3194,
        "meta_mean_anomaly": 13.1503,
        "meta_ephemeris_type": 0,
        "meta_classification_type": "U",
        "meta_norad_cat_id": 39536,
        "meta_element_set_no": 999,
        "meta_rev_at_epoch": 61287,
        "meta_bstar": 0.0015441724,
        "meta_mean_motion_dot": 1.606e-05,
        "meta_mean_motion_ddot": 0,
        "tle_line1": "1 39536U 99025EWD 25311.90595570  .00001606  00000+0  15442-2 0  9993",
        "tle_line2": "2 39536  99.7905 351.2614 0240727 346.3194  13.1503 13.69653557612878"
      },
      "geometry": {
        "type": "Point",
        "coordinates": [
          -168.39246094611042,
          -44.778472250328576
        ]
      }
    },
    {
      "type": "Feature",
      "properties": {
        "norad_id": 39537,
        "name": "FENGYUN 1C DEB",
        "group": "fengyun-1c-debris",
        "lat": 77.4600815956924,
        "lon": -6.056293201177279,
        "alt_km": 970.1353166207846,
        "timestamp": "2025-12-07T14:37:05.494769+00:00",
        "meta_object_name": "FENGYUN 1C DEB",
        "meta_object_id": "1999-025EWE",
        "meta_epoch": "2025-11-24T15:36:49.218624",
        "meta_mean_motion": 13.84100529,
        "meta_eccentricity": 0.01777289,
        "meta_inclination": 99.1539,
        "meta_ra_of_asc_node": 114.8537,
        "meta_arg_of_pericenter": 29.7742,
        "meta_mean_anomaly": 331.3386,
        "meta_ephemeris_type": 0,
        "meta_classification_type": "U",
        "meta_norad_cat_id": 39537,
        "meta_element_set_no": 999,
        "meta_rev_at_epoch": 59006,
        "meta_bstar": 0.0012783634,
        "meta_mean_motion_dot": 1.566e-05,
        "meta_mean_motion_ddot": 0,
        "tle_line1": "1 39537U 99025EWE 25328.65056966  .00001566  00000+0  12784-2 0  9996",
        "tle_line2": "2 39537  99.1539 114.8537 0177728  29.7742 331.3386 13.84100529590067"
      },
      "geometry": {
        "type": "Point",
        "coordinates": [
          -6.056293201177279,
          77.4600815956924
        ]
      }
    },
    {
      "type": "Feature",
      "properties": {
        "norad_id": 39541,
        "name": "FENGYUN 1C DEB",
        "group": "fengyun-1c-debris",
        "lat": -50.37172383776973,
        "lon": -166.81957868698134,
        "alt_km": 872.721941006198,
        "timestamp": "2025-12-07T14:37:05.494780+00:00",
        "meta_object_name": "FENGYUN 1C DEB",
        "meta_object_id": "1999-025EWJ",
        "meta_epoch": "2025-11-26T08:43:14.269440",
        "meta_mean_motion": 14.20329557,
        "meta_eccentricity": 0.00721468,
        "meta_inclination": 98.6819,
        "meta_ra_of_asc_node": 12.7746,
        "meta_arg_of_pericenter": 119.8468,
        "meta_mean_anomaly": 240.9905,
        "meta_ephemeris_type": 0,
        "meta_classification_type": "U",
        "meta_norad_cat_id": 39541,
        "meta_element_set_no": 999,
        "meta_rev_at_epoch": 58770,
        "meta_bstar": 0.00069059031,
        "meta_mean_motion_dot": 1.475e-05,
        "meta_mean_motion_ddot": 0,
        "tle_line1": "1 39541U 99025EWJ 25330.36335960  .00001475  00000+0  69059-3 0  9993",
        "tle_line2": "2 39541  98.6819  12.7746 0072146 119.8468 240.9905 14.20329557587703"
      },
      "geometry": {
        "type": "Point",
        "coordinates": [
          -166.81957868698134,
          -50.37172383776973
        ]
      }
    },
    {
      "type": "Feature",
      "properties": {
        "norad_id": 39543,
        "name": "FENGYUN 1C DEB",
        "group": "fengyun-1c-debris",
        "lat": -70.02764443771026,
        "lon": 165.76681345331912,
        "alt_km": 1025.9980599442397,
        "timestamp": "2025-12-07T14:37:05.494790+00:00",
        "meta_object_name": "FENGYUN 1C DEB",
        "meta_object_id": "1999-025EWL",
        "meta_epoch": "2025-12-02T19:29:54.358944",
        "meta_mean_motion": 13.70153649,
        "meta_eccentricity": 0.03392643,
        "meta_inclination": 99.0434,
        "meta_ra_of_asc_node": 7.2386,
        "meta_arg_of_pericenter": 168.2172,
        "meta_mean_anomaly": 192.7172,
        "meta_ephemeris_type": 0,
        "meta_classification_type": "U",
        "meta_norad_cat_id": 39543,
        "meta_element_set_no": 999,
        "meta_rev_at_epoch": 49049,
        "meta_bstar": 0.0011250727,
        "meta_mean_motion_dot": 1.448e-05,
        "meta_mean_motion_ddot": 0,
        "tle_line1": "1 39543U 99025EWL 25336.81243471  .00001448  00000+0  11251-2 0  9996",
        "tle_line2": "2 39543  99.0434   7.2386 0339264 168.2172 192.7172 13.70153649490499"
      },
      "geometry": {
        "type": "Point",
        "coordinates": [
          165.76681345331912,
          -70.02764443771026
        ]
      }
    },
    {
      "type": "Feature",
      "properties": {
        "norad_id": 39544,
        "name": "FENGYUN 1C DEB",
        "group": "fengyun-1c-debris",
        "lat": 7.744887280676395,
        "lon": -140.27273914688493,
        "alt_km": 837.9934385270844,
        "timestamp": "2025-12-07T14:37:05.494801+00:00",
        "meta_object_name": "FENGYUN 1C DEB",
        "meta_object_id": "1999-025EWM",
        "meta_epoch": "2025-11-19T09:11:56.449536",
        "meta_mean_motion": 14.05475202,
        "meta_eccentricity": 0.00550402,
        "meta_inclination": 98.7431,
        "meta_ra_of_asc_node": 203.3482,
        "meta_arg_of_pericenter": 73.9921,
        "meta_mean_anomaly": 286.7301,
        "meta_ephemeris_type": 0,
        "meta_classification_type": "U",
        "meta_norad_cat_id": 39544,
        "meta_element_set_no": 999,
        "meta_rev_at_epoch": 56527,
        "meta_bstar": 0.00067356683,
        "meta_mean_motion_dot": 1.067e-05,
        "meta_mean_motion_ddot": 0,
        "tle_line1": "1 39544U 99025EWM 25323.38329224  .00001067  00000+0  67357-3 0  9992",
        "tle_line2": "2 39544  98.7431 203.3482 0055040  73.9921 286.7301 14.05475202565278"
      },
      "geometry": {
        "type": "Point",
        "coordinates": [
          -140.27273914688493,
          7.744887280676395
        ]
      }
    }
  ]
}